[{"OBJECT_NAME":"QIANFAN-101","OBJECT_ID":"2025-233L","EPOCH":"2026-03-09T23:40:08.087808","MEAN_MOTION":14.26740528,"ECCENTRICITY":0.00171671,"INCLINATION":88.9944,"RA_OF_ASC_NODE":51.9499,"ARG_OF_PERICENTER":106.3437,"MEAN_ANOMALY":253.9646,"EPHEMERIS_TYPE":0,"CLASSIFICATION_TYPE":"U","NORAD_CAT_ID":66043,"ELEMENT_SET_NO":999,"REV_AT_EPOCH":2048,"BSTAR":0.00028904417,"MEAN_MOTION_DOT":7.15e-6,"MEAN_MOTION_DDOT":0},{"OBJECT_NAME":"DMSP 5D-2 F13 DEB","OBJECT_ID":"1995-015EX","EPOCH":"2026-03-08T08:03:17.949888","MEAN_MOTION":14.35626505,"ECCENTRICITY":0.0031761,"INCLINATION":98.8567,"RA_OF_ASC_NODE":111.5382,"ARG_OF_PERICENTER":321.0649,"MEAN_ANOMALY":38.8249,"EPHEMERIS_TYPE":0,"CLASSIFICATION_TYPE":"U","NORAD_CAT_ID":40600,"ELEMENT_SET_NO":999,"REV_AT_EPOCH":56140,"BSTAR":0.0035732465,"MEAN_MOTION_DOT":0.00010332,"MEAN_MOTION_DDOT":0}]
